#aV2019  7  1  0  0  0.00000000     288 DD+AD WGS84 FIT  NGA
## 2060  86400.00000000   300.00000000 58665 0.0000000000000
+   31     1  2  3  5  6  7  8  9 10 11 12 13 14 15 16 17 18
+         19 20 21 22 23 24 25 26 27 28 29 30 31 32  0  0  0
+          0  0  0  0  0  0  0  0  0  0  0  0  0  0  0  0  0
+          0  0  0  0  0  0  0  0  0  0  0  0  0  0  0  0  0
+          0  0  0  0  0  0  0  0  0  0  0  0  0  0  0  0  0
++         2  2  2  2  2  2  2  2  2  2  2  2  2  2  2  2  2
++         2  2  2  2  2  2  2  2  2  2  2  2  2  2  0  0  0
++         0  0  0  0  0  0  0  0  0  0  0  0  0  0  0  0  0
++         0  0  0  0  0  0  0  0  0  0  0  0  0  0  0  0  0
++         0  0  0  0  0  0  0  0  0  0  0  0  0  0  0  0  0
%c cc cc ccc ccc cccc cccc cccc cccc ccccc ccccc ccccc ccccc
%c cc cc ccc ccc cccc cccc cccc cccc ccccc ccccc ccccc ccccc
%f  0.0000000  0.000000000  0.00000000000  0.000000000000000
%f  0.0000000  0.000000000  0.00000000000  0.000000000000000
%i    0    0    0    0      0      0      0      0         0
%i    0    0    0    0      0      0      0      0         0
/*      NGA, ST. LOUIS,MO.                                  
/*   EPHEMERIS COMPUTED FROM 2 DAYS OF DATA                 
/*   EPOCHA v5 SMOOTHER                                     
/*   G1762 IERS2010 SATAF SATAPC                            
*  2019  7  1 15 55  0.00000000
P  1  13292.921637 -13073.325533  18592.690105    -55.587807                    
V  1    147.188856  24129.906872  17004.245555     -0.101217                    
P  2 -13918.492074 -10534.052088 -19457.527287   -250.235252                    
V  2    888.013035 -26028.461710  12911.505732     -0.087791                    
P  3  23021.171595 -13061.523695  -1558.181442    183.302309                    
V  3   3003.560265   1617.119485  31787.164427     -0.017423                    
P  5 -21292.883501  -1405.089201 -16068.143986      0.275342                    
V  5  16693.092072 -11403.815078 -21082.999850     -0.001857                    
P  6  -6921.491110 -22747.511105 -11758.975025    162.174548                    
V  6   2693.394656 -14875.030969  27128.442091     -0.109638                    
P  7   6865.420765 -24163.658771  -7566.179436    -55.611685                    
V  7   2612.496698  10284.327744 -29915.325413     -0.076749                    
P  8  22165.007785   1957.069899  14688.682709   -149.539197                    
V  8  14780.541455  11256.233429 -23647.255644     -0.014877                    
P  9   4502.548419 -15140.764668 -21389.165138    380.149142                    
V  9  23263.627742  13915.655629  -4971.680644     -0.079893                    
P 10   1077.460256  16027.809269  21180.734066     -1.681735                    
V 10 -24118.068368  11659.978057  -7816.216730     -0.124883                    
P 11  13545.975844  -8934.933801  20516.976477   -571.637767                    
V 11  11047.478899  25156.183379   3306.850882      0.089974                    
P 12 -24371.358098  10312.616392    320.006368    227.979052                    
V 12   -287.436180  -2348.414400  32338.646542     -0.035709                    
P 13 -22503.736083 -11681.705409   7890.678971    -56.590330                    
V 13  -6245.115999  -8353.149606 -29716.552411      0.017128                    
P 14  17570.142114  19076.390349   6493.064049    -73.548734                    
V 14  -7716.191023  -2708.922241  30189.182300      0.017689                    
P 15 -22341.559315    599.902652  14370.649801   -303.637670                    
V 15 -15351.428503 -10907.627983 -22593.544482      0.023852                    
P 16  21159.607882   3009.168284 -16231.234251    -52.608433                    
V 16 -18114.385729   8647.357760 -21852.888050     -0.031416                    
P 17 -11493.929281 -19774.747840  13983.953953     81.169193                    
V 17  14623.153458   8779.973619  25086.795089      0.066056                    
P 18  14956.109814  -3613.089230  21141.793589     66.424957                    
V 18    564.427681  28058.147420   4419.811995      0.030436                    
P 19 -16703.046040 -19266.737423   7012.749656   -299.646245                    
V 19   8622.923538   4113.630158  30572.633118      0.048065                    
P 20  -7749.958088  19624.029584  15935.902982    525.712464                    
V 20 -18475.300863   9427.726886 -20619.531930      0.002263                    
P 21  -1335.358108  26434.991668  -2276.122833   -162.769580                    
V 21  -3140.001659  -3801.607236 -31222.796427      0.071117                    
P 22  24110.776710  -9162.844376   6378.600911   -725.074002                    
V 22  -4770.152380   7275.830022  29634.570397     -0.053761                    
P 23  17190.395298  -5780.315718 -19188.730901   -179.256327                    
V 23  20617.095467  14276.602250  13526.091152      0.017712                    
P 24 -14364.065008  10121.707059  19667.146645    -68.231681                    
V 24  -1661.517268 -25481.999860  12136.639398     -0.005677                    
P 25 -16776.506420  17222.224801 -11216.877656   -770.169001                    
V 25 -13508.041800   4327.063862  27607.581645     -0.029161                    
P 26  13170.344849   9795.376608 -20932.181703    240.644136                    
V 26 -22913.538789  13397.785227  -7979.474433      0.093667                    
P 27  23562.887273  11945.898053   3914.336349   -172.885493                    
V 27   3190.160126   4401.262526 -31433.110539     -0.104524                    
P 28    600.716026 -15980.803727  21829.281227    766.961553                    
V 28  24443.892692  -9498.849747  -7752.388580     -0.003368                    
P 29  -8793.879004  11770.576637 -22163.226554    162.476911                    
V 29 -22496.782860 -16635.825913     78.917965     -0.095956                    
P 30    268.044499 -26299.751243   2873.394653   -134.632535                    
V 30   3898.968962  -3311.729936 -31149.604294     -0.074230                    
P 31   7649.844640  21481.741009 -13238.388286     27.280278                    
V 31  -3856.737897  16736.868069  25370.273962     -0.026363                    
P 32  13133.997742  19180.234654  13019.847188    -20.545299                    
V 32 -15071.690216  -6842.399212  25287.255585      0.156513                    
EOF
